[{"OBJECT_NAME":"OBJECT C","OBJECT_ID":"2025-313C","EPOCH":"2026-03-09T21:13:39.359712","MEAN_MOTION":14.86307196,"ECCENTRICITY":0.01562422,"INCLINATION":97.6236,"RA_OF_ASC_NODE":143.4861,"ARG_OF_PERICENTER":305.4656,"MEAN_ANOMALY":53.2062,"EPHEMERIS_TYPE":0,"CLASSIFICATION_TYPE":"U","NORAD_CAT_ID":67250,"ELEMENT_SET_NO":999,"REV_AT_EPOCH":1059,"BSTAR":0.0010268788,"MEAN_MOTION_DOT":0.00011246,"MEAN_MOTION_DDOT":0},{"OBJECT_NAME":"COSMOS 2251 DEB","OBJECT_ID":"1993-036BMB","EPOCH":"2026-03-09T12:44:27.490272","MEAN_MOTION":14.55566663,"ECCENTRICITY":0.00090914,"INCLINATION":74.038,"RA_OF_ASC_NODE":19.5377,"ARG_OF_PERICENTER":63.1339,"MEAN_ANOMALY":297.0753,"EPHEMERIS_TYPE":0,"CLASSIFICATION_TYPE":"U","NORAD_CAT_ID":37498,"ELEMENT_SET_NO":999,"REV_AT_EPOCH":66617,"BSTAR":0.0011062132,"MEAN_MOTION_DOT":4.8e-5,"MEAN_MOTION_DDOT":0}]
